{"type":"FeatureCollection","features":[{"type":"Feature","properties":{"GID_3":"PHL.60.1.1_1","GID_0":"PHL","COUNTRY":"Philippines","GID_1":"PHL.60_1","NAME_1":"Pampanga","NL_NAME_1":"NA","GID_2":"PHL.60.1_1","NAME_2":"AngelesCity","NL_NAME_2":"NA","NAME_3":"AgapitodelRosario","VARNAME_3":"NA","NL_NAME_3":"NA","TYPE_3":"Barangay","ENGTYPE_3":"Village","CC_3":"NA","HASC_3":"NA"},"geometry":{"type":"MultiPolygon","coordinates":[[[[120.605,15.1254],[120.6032,15.1292],[120.6083,15.1321],[120.6125,15.1287],[120.605,15.1254]]]]}},{"type":"Feature","properties":{"GID_3":"PHL.60.1.2_1","GID_0":"PHL","COUNTRY":"Philippines","GID_1":"PHL.60_1","NAME_1":"Pampanga","NL_NAME_1":"NA","GID_2":"PHL.60.1_1","NAME_2":"AngelesCity","NL_NAME_2":"NA","NAME_3":"Amsic","VARNAME_3":"NA","NL_NAME_3":"NA","TYPE_3":"Barangay","ENGTYPE_3":"Village","CC_3":"NA","HASC_3":"NA"},"geometry":{"type":"MultiPolygon","coordinates":[[[[120.5795,15.146],[120.5778,15.1524],[120.5842,15.1551],[120.5936,15.1531],[120.6006,15.1533],[120.611,15.1571],[120.6129,15.1492],[120.6033,15.1444],[120.5937,15.1438],[120.5881,15.1445],[120.5851,15.1466],[120.5795,15.146]]]]}},{"type":"Feature","properties":{"GID_3":"PHL.60.1.3_1","GID_0":"PHL","COUNTRY":"Philippines","GID_1":"PHL.60_1","NAME_1":"Pampanga","NL_NAME_1":"NA","GID_2":"PHL.60.1_1","NAME_2":"AngelesCity","NL_NAME_2":"NA","NAME_3":"Anunas","VARNAME_3":"NA","NL_NAME_3":"NA","TYPE_3":"Barangay","ENGTYPE_3":"Village","CC_3":"NA","HASC_3":"NA"},"geometry":{"type":"MultiPolygon","coordinates":[[[[120.5778,15.1524],[120.5795,15.146],[120.5619,15.1403],[120.5548,15.1428],[120.5522,15.1454],[120.5514,15.1489],[120.5456,15.1492],[120.558,15.1531],[120.5627,15.1497],[120.5703,15.1477],[120.5778,15.1524]]]]}},{"type":"Feature","properties":{"GID_3":"PHL.60.1.4_1","GID_0":"PHL","COUNTRY":"Philippines","GID_1":"PHL.60_1","NAME_1":"Pampanga","NL_NAME_1":"NA","GID_2":"PHL.60.1_1","NAME_2":"AngelesCity","NL_NAME_2":"NA","NAME_3":"Balibago","VARNAME_3":"NA","NL_NAME_3":"NA","TYPE_3":"Barangay","ENGTYPE_3":"Village","CC_3":"NA","HASC_3":"NA"},"geometry":{"type":"MultiPolygon","coordinates":[[[[120.6129,15.1492],[120.6086,15.1657],[120.6121,15.1676],[120.6184,15.1667],[120.6219,15.1681],[120.6247,15.1635],[120.6285,15.1643],[120.6374,15.1583],[120.6341,15.154],[120.6284,15.1549],[120.6129,15.1492]]]]}},{"type":"Feature","properties":{"GID_3":"PHL.60.1.5_1","GID_0":"PHL","COUNTRY":"Philippines","GID_1":"PHL.60_1","NAME_1":"Pampanga","NL_NAME_1":"NA","GID_2":"PHL.60.1_1","NAME_2":"AngelesCity","NL_NAME_2":"NA","NAME_3":"Capaya","VARNAME_3":"NA","NL_NAME_3":"NA","TYPE_3":"Barangay","ENGTYPE_3":"Village","CC_3":"NA","HASC_3":"NA"},"geometry":{"type":"MultiPolygon","coordinates":[[[[120.6474,15.1353],[120.6451,15.1381],[120.6594,15.1434],[120.6568,15.1387],[120.6474,15.1353]]]]}},{"type":"Feature","properties":{"GID_3":"PHL.60.1.6_1","GID_0":"PHL","COUNTRY":"Philippines","GID_1":"PHL.60_1","NAME_1":"Pampanga","NL_NAME_1":"NA","GID_2":"PHL.60.1_1","NAME_2":"AngelesCity","NL_NAME_2":"NA","NAME_3":"ClaroM.Recto","VARNAME_3":"NA","NL_NAME_3":"NA","TYPE_3":"Barangay","ENGTYPE_3":"Village","CC_3":"NA","HASC_3":"NA"},"geometry":{"type":"MultiPolygon","coordinates":[[[[120.6129,15.1492],[120.6284,15.1549],[120.6297,15.1549],[120.6207,15.1391],[120.6111,15.142],[120.6129,15.1492]]]]}},{"type":"Feature","properties":{"GID_3":"PHL.60.1.7_1","GID_0":"PHL","COUNTRY":"Philippines","GID_1":"PHL.60_1","NAME_1":"Pampanga","NL_NAME_1":"NA","GID_2":"PHL.60.1_1","NAME_2":"AngelesCity","NL_NAME_2":"NA","NAME_3":"Cuayan","VARNAME_3":"NA","NL_NAME_3":"NA","TYPE_3":"Barangay","ENGTYPE_3":"Village","CC_3":"NA","HASC_3":"NA"},"geometry":{"type":"MultiPolygon","coordinates":[[[[120.5619,15.1403],[120.5795,15.146],[120.5912,15.1424],[120.5971,15.1382],[120.5898,15.1365],[120.5841,15.1329],[120.5699,15.1374],[120.5639,15.1377],[120.5619,15.1403]]]]}},{"type":"Feature","properties":{"GID_3":"PHL.60.1.8_1","GID_0":"PHL","COUNTRY":"Philippines","GID_1":"PHL.60_1","NAME_1":"Pampanga","NL_NAME_1":"NA","GID_2":"PHL.60.1_1","NAME_2":"AngelesCity","NL_NAME_2":"NA","NAME_3":"Cutcut","VARNAME_3":"NA","NL_NAME_3":"NA","TYPE_3":"Barangay","ENGTYPE_3":"Village","CC_3":"NA","HASC_3":"NA"},"geometry":{"type":"MultiPolygon","coordinates":[[[[120.6037,15.1277],[120.6075,15.1202],[120.6029,15.1176],[120.5947,15.1256],[120.6037,15.1277]]]]}},{"type":"Feature","properties":{"GID_3":"PHL.60.1.9_1","GID_0":"PHL","COUNTRY":"Philippines","GID_1":"PHL.60_1","NAME_1":"Pampanga","NL_NAME_1":"NA","GID_2":"PHL.60.1_1","NAME_2":"AngelesCity","NL_NAME_2":"NA","NAME_3":"Cutud","VARNAME_3":"NA","NL_NAME_3":"NA","TYPE_3":"Barangay","ENGTYPE_3":"Village","CC_3":"NA","HASC_3":"NA"},"geometry":{"type":"MultiPolygon","coordinates":[[[[120.6616,15.1634],[120.6488,15.1608],[120.6402,15.1647],[120.6283,15.165],[120.6404,15.1696],[120.6427,15.172],[120.6508,15.1721],[120.6596,15.1706],[120.6622,15.1656],[120.6616,15.1634]]]]}},{"type":"Feature","properties":{"GID_3":"PHL.60.1.10_1","GID_0":"PHL","COUNTRY":"Philippines","GID_1":"PHL.60_1","NAME_1":"Pampanga","NL_NAME_1":"NA","GID_2":"PHL.60.1_1","NAME_2":"AngelesCity","NL_NAME_2":"NA","NAME_3":"LourdesNorthWest","VARNAME_3":"NA","NL_NAME_3":"NA","TYPE_3":"Barangay","ENGTYPE_3":"Village","CC_3":"NA","HASC_3":"NA"},"geometry":{"type":"MultiPolygon","coordinates":[[[[120.6083,15.1321],[120.6032,15.1292],[120.6001,15.1319],[120.6039,15.137],[120.609,15.1346],[120.6083,15.1321]]]]}},{"type":"Feature","properties":{"GID_3":"PHL.60.1.11_1","GID_0":"PHL","COUNTRY":"Philippines","GID_1":"PHL.60_1","NAME_1":"Pampanga","NL_NAME_1":"NA","GID_2":"PHL.60.1_1","NAME_2":"AngelesCity","NL_NAME_2":"NA","NAME_3":"LourdesSur","VARNAME_3":"NA","NL_NAME_3":"NA","TYPE_3":"Barangay","ENGTYPE_3":"Village","CC_3":"NA","HASC_3":"NA"},"geometry":{"type":"MultiPolygon","coordinates":[[[[120.6133,15.1291],[120.6158,15.1331],[120.6222,15.1349],[120.6268,15.1356],[120.6287,15.1339],[120.636,15.1329],[120.6307,15.1287],[120.6201,15.1308],[120.6142,15.1259],[120.6121,15.1271],[120.6133,15.1291]]]]}},{"type":"Feature","properties":{"GID_3":"PHL.60.1.12_1","GID_0":"PHL","COUNTRY":"Philippines","GID_1":"PHL.60_1","NAME_1":"Pampanga","NL_NAME_1":"NA","GID_2":"PHL.60.1_1","NAME_2":"AngelesCity","NL_NAME_2":"NA","NAME_3":"LourdesSurEast","VARNAME_3":"NA","NL_NAME_3":"NA","TYPE_3":"Barangay","ENGTYPE_3":"Village","CC_3":"NA","HASC_3":"NA"},"geometry":{"type":"MultiPolygon","coordinates":[[[[120.6125,15.1287],[120.6083,15.1321],[120.6111,15.142],[120.6268,15.1356],[120.6158,15.1331],[120.6125,15.1287]]]]}},{"type":"Feature","properties":{"GID_3":"PHL.60.1.13_1","GID_0":"PHL","COUNTRY":"Philippines","GID_1":"PHL.60_1","NAME_1":"Pampanga","NL_NAME_1":"NA","GID_2":"PHL.60.1_1","NAME_2":"AngelesCity","NL_NAME_2":"NA","NAME_3":"Malabanias","VARNAME_3":"NA","NL_NAME_3":"NA","TYPE_3":"Barangay","ENGTYPE_3":"Village","CC_3":"NA","HASC_3":"NA"},"geometry":{"type":"MultiPolygon","coordinates":[[[[120.611,15.1571],[120.6006,15.1533],[120.5936,15.1531],[120.5925,15.1593],[120.5986,15.1604],[120.6086,15.1657],[120.611,15.1571]]]]}},{"type":"Feature","properties":{"GID_3":"PHL.60.1.14_1","GID_0":"PHL","COUNTRY":"Philippines","GID_1":"PHL.60_1","NAME_1":"Pampanga","NL_NAME_1":"NA","GID_2":"PHL.60.1_1","NAME_2":"AngelesCity","NL_NAME_2":"NA","NAME_3":"Margot","VARNAME_3":"NA","NL_NAME_3":"NA","TYPE_3":"Barangay","ENGTYPE_3":"Village","CC_3":"NA","HASC_3":"NA"},"geometry":{"type":"MultiPolygon","coordinates":[[[[120.5936,15.1531],[120.5842,15.1551],[120.5689,15.1477],[120.5627,15.1497],[120.5455,15.162],[120.5794,15.1685],[120.5833,15.16],[120.5925,15.1593],[120.5936,15.1531]]]]}},{"type":"Feature","properties":{"GID_3":"PHL.60.1.15_1","GID_0":"PHL","COUNTRY":"Philippines","GID_1":"PHL.60_1","NAME_1":"Pampanga","NL_NAME_1":"NA","GID_2":"PHL.60.1_1","NAME_2":"AngelesCity","NL_NAME_2":"NA","NAME_3":"Mining","VARNAME_3":"NA","NL_NAME_3":"NA","TYPE_3":"Barangay","ENGTYPE_3":"Village","CC_3":"NA","HASC_3":"NA"},"geometry":{"type":"MultiPolygon","coordinates":[[[[120.6451,15.1381],[120.6474,15.1353],[120.6408,15.1295],[120.6349,15.1337],[120.6287,15.1339],[120.6259,15.1365],[120.6451,15.1381]]]]}},{"type":"Feature","properties":{"GID_3":"PHL.60.1.16_1","GID_0":"PHL","COUNTRY":"Philippines","GID_1":"PHL.60_1","NAME_1":"Pampanga","NL_NAME_1":"NA","GID_2":"PHL.60.1_1","NAME_2":"AngelesCity","NL_NAME_2":"NA","NAME_3":"NinoyAquino","VARNAME_3":"Marisol","NL_NAME_3":"NA","TYPE_3":"Barangay","ENGTYPE_3":"Village","CC_3":"NA","HASC_3":"NA"},"geometry":{"type":"MultiPolygon","coordinates":[[[[120.6259,15.1476],[120.6284,15.1525],[120.6345,15.1503],[120.6308,15.1461],[120.6259,15.1476]]]]}},{"type":"Feature","properties":{"GID_3":"PHL.60.1.17_1","GID_0":"PHL","COUNTRY":"Philippines","GID_1":"PHL.60_1","NAME_1":"Pampanga","NL_NAME_1":"NA","GID_2":"PHL.60.1_1","NAME_2":"AngelesCity","NL_NAME_2":"NA","NAME_3":"Pampang","VARNAME_3":"NA","NL_NAME_3":"NA","TYPE_3":"Barangay","ENGTYPE_3":"Village","CC_3":"NA","HASC_3":"NA"},"geometry":{"type":"MultiPolygon","coordinates":[[[[120.5841,15.1329],[120.5938,15.1376],[120.6039,15.137],[120.6001,15.1319],[120.5904,15.1291],[120.5841,15.1329]]]]}},{"type":"Feature","properties":{"GID_3":"PHL.60.1.18_1","GID_0":"PHL","COUNTRY":"Philippines","GID_1":"PHL.60_1","NAME_1":"Pampanga","NL_NAME_1":"NA","GID_2":"PHL.60.1_1","NAME_2":"AngelesCity","NL_NAME_2":"NA","NAME_3":"Pandan","VARNAME_3":"NA","NL_NAME_3":"NA","TYPE_3":"Barangay","ENGTYPE_3":"Village","CC_3":"NA","HASC_3":"NA"},"geometry":{"type":"MultiPolygon","coordinates":[[[[120.6308,15.1461],[120.6345,15.1503],[120.6416,15.145],[120.6379,15.1437],[120.6308,15.1461]]]]}},{"type":"Feature","properties":{"GID_3":"PHL.60.1.19_1","GID_0":"PHL","COUNTRY":"Philippines","GID_1":"PHL.60_1","NAME_1":"Pampanga","NL_NAME_1":"NA","GID_2":"PHL.60.1_1","NAME_2":"AngelesCity","NL_NAME_2":"NA","NAME_3":"PulungCacutud","VARNAME_3":"NA","NL_NAME_3":"NA","TYPE_3":"Barangay","ENGTYPE_3":"Village","CC_3":"NA","HASC_3":"NA"},"geometry":{"type":"MultiPolygon","coordinates":[[[[120.6374,15.1583],[120.6285,15.1643],[120.6386,15.1649],[120.6488,15.1608],[120.6616,15.1634],[120.6591,15.1566],[120.6554,15.1555],[120.6525,15.1568],[120.6474,15.1553],[120.6374,15.1583]]]]}},{"type":"Feature","properties":{"GID_3":"PHL.60.1.20_1","GID_0":"PHL","COUNTRY":"Philippines","GID_1":"PHL.60_1","NAME_1":"Pampanga","NL_NAME_1":"NA","GID_2":"PHL.60.1_1","NAME_2":"AngelesCity","NL_NAME_2":"NA","NAME_3":"PulungMaragul","VARNAME_3":"NA","NL_NAME_3":"NA","TYPE_3":"Barangay","ENGTYPE_3":"Village","CC_3":"NA","HASC_3":"NA"},"geometry":{"type":"MultiPolygon","coordinates":[[[[120.6297,15.1549],[120.6341,15.154],[120.6374,15.1583],[120.6474,15.1553],[120.641,15.146],[120.6363,15.1499],[120.6284,15.1525],[120.6297,15.1549]]]]}},{"type":"Feature","properties":{"GID_3":"PHL.60.1.21_1","GID_0":"PHL","COUNTRY":"Philippines","GID_1":"PHL.60_1","NAME_1":"Pampanga","NL_NAME_1":"NA","GID_2":"PHL.60.1_1","NAME_2":"AngelesCity","NL_NAME_2":"NA","NAME_3":"Pulungbulu","VARNAME_3":"NA","NL_NAME_3":"NA","TYPE_3":"Barangay","ENGTYPE_3":"Village","CC_3":"NA","HASC_3":"NA"},"geometry":{"type":"MultiPolygon","coordinates":[[[[120.6307,15.1287],[120.636,15.1329],[120.6408,15.1295],[120.6299,15.1193],[120.621,15.1162],[120.6188,15.1202],[120.6307,15.1287]]]]}},{"type":"Feature","properties":{"GID_3":"PHL.60.1.22_1","GID_0":"PHL","COUNTRY":"Philippines","GID_1":"PHL.60_1","NAME_1":"Pampanga","NL_NAME_1":"NA","GID_2":"PHL.60.1_1","NAME_2":"AngelesCity","NL_NAME_2":"NA","NAME_3":"Salapungan","VARNAME_3":"NA","NL_NAME_3":"NA","TYPE_3":"Barangay","ENGTYPE_3":"Village","CC_3":"NA","HASC_3":"NA"},"geometry":{"type":"MultiPolygon","coordinates":[[[[120.6207,15.1391],[120.6259,15.1476],[120.6379,15.1437],[120.6451,15.1381],[120.6259,15.1365],[120.6207,15.1391]]]]}},{"type":"Feature","properties":{"GID_3":"PHL.60.1.23_1","GID_0":"PHL","COUNTRY":"Philippines","GID_1":"PHL.60_1","NAME_1":"Pampanga","NL_NAME_1":"NA","GID_2":"PHL.60.1_1","NAME_2":"AngelesCity","NL_NAME_2":"NA","NAME_3":"SanJose","VARNAME_3":"NA","NL_NAME_3":"NA","TYPE_3":"Barangay","ENGTYPE_3":"Village","CC_3":"NA","HASC_3":"NA"},"geometry":{"type":"MultiPolygon","coordinates":[[[[120.6029,15.1176],[120.6189,15.1255],[120.6241,15.123],[120.6057,15.1118],[120.6013,15.1138],[120.6029,15.1176]]]]}},{"type":"Feature","properties":{"GID_3":"PHL.60.1.24_1","GID_0":"PHL","COUNTRY":"Philippines","GID_1":"PHL.60_1","NAME_1":"Pampanga","NL_NAME_1":"NA","GID_2":"PHL.60.1_1","NAME_2":"AngelesCity","NL_NAME_2":"NA","NAME_3":"SanNicolas","VARNAME_3":"NA","NL_NAME_3":"NA","TYPE_3":"Barangay","ENGTYPE_3":"Village","CC_3":"NA","HASC_3":"NA"},"geometry":{"type":"MultiPolygon","coordinates":[[[[120.6032,15.1292],[120.6037,15.1277],[120.5947,15.1256],[120.5904,15.1291],[120.6001,15.1319],[120.6032,15.1292]]]]}},{"type":"Feature","properties":{"GID_3":"PHL.60.1.25_1","GID_0":"PHL","COUNTRY":"Philippines","GID_1":"PHL.60_1","NAME_1":"Pampanga","NL_NAME_1":"NA","GID_2":"PHL.60.1_1","NAME_2":"AngelesCity","NL_NAME_2":"NA","NAME_3":"SantaTeresita","VARNAME_3":"NA","NL_NAME_3":"NA","TYPE_3":"Barangay","ENGTYPE_3":"Village","CC_3":"NA","HASC_3":"NA"},"geometry":{"type":"MultiPolygon","coordinates":[[[[120.5795,15.146],[120.5851,15.1466],[120.5881,15.1445],[120.5937,15.1438],[120.6033,15.1444],[120.6129,15.1492],[120.6131,15.1472],[120.6107,15.1409],[120.6052,15.1414],[120.6039,15.137],[120.5978,15.1374],[120.5912,15.1424],[120.5795,15.146]]]]}},{"type":"Feature","properties":{"GID_3":"PHL.60.1.26_1","GID_0":"PHL","COUNTRY":"Philippines","GID_1":"PHL.60_1","NAME_1":"Pampanga","NL_NAME_1":"NA","GID_2":"PHL.60.1_1","NAME_2":"AngelesCity","NL_NAME_2":"NA","NAME_3":"SantaTrinidad","VARNAME_3":"NA","NL_NAME_3":"NA","TYPE_3":"Barangay","ENGTYPE_3":"Village","CC_3":"NA","HASC_3":"NA"},"geometry":{"type":"MultiPolygon","coordinates":[[[[120.605,15.1254],[120.6133,15.1291],[120.6121,15.1271],[120.6157,15.1241],[120.6075,15.1202],[120.605,15.1254]]]]}},{"type":"Feature","properties":{"GID_3":"PHL.60.1.27_1","GID_0":"PHL","COUNTRY":"Philippines","GID_1":"PHL.60_1","NAME_1":"Pampanga","NL_NAME_1":"NA","GID_2":"PHL.60.1_1","NAME_2":"AngelesCity","NL_NAME_2":"NA","NAME_3":"SantoCristo","VARNAME_3":"NA","NL_NAME_3":"NA","TYPE_3":"Barangay","ENGTYPE_3":"Village","CC_3":"NA","HASC_3":"NA"},"geometry":{"type":"MultiPolygon","coordinates":[[[[120.6167,15.1271],[120.6201,15.1308],[120.6307,15.1287],[120.628,15.1262],[120.6167,15.1271]]]]}},{"type":"Feature","properties":{"GID_3":"PHL.60.1.28_1","GID_0":"PHL","COUNTRY":"Philippines","GID_1":"PHL.60_1","NAME_1":"Pampanga","NL_NAME_1":"NA","GID_2":"PHL.60.1_1","NAME_2":"AngelesCity","NL_NAME_2":"NA","NAME_3":"SantoDomingo","VARNAME_3":"NA","NL_NAME_3":"NA","TYPE_3":"Barangay","ENGTYPE_3":"Village","CC_3":"NA","HASC_3":"NA"},"geometry":{"type":"MultiPolygon","coordinates":[[[[120.6188,15.1202],[120.621,15.1162],[120.6146,15.1095],[120.6057,15.1118],[120.6188,15.1202]]]]}},{"type":"Feature","properties":{"GID_3":"PHL.60.1.29_1","GID_0":"PHL","COUNTRY":"Philippines","GID_1":"PHL.60_1","NAME_1":"Pampanga","NL_NAME_1":"NA","GID_2":"PHL.60.1_1","NAME_2":"AngelesCity","NL_NAME_2":"NA","NAME_3":"SantoRosario","VARNAME_3":"Poblacion","NL_NAME_3":"NA","TYPE_3":"Barangay","ENGTYPE_3":"Village","CC_3":"NA","HASC_3":"NA"},"geometry":{"type":"MultiPolygon","coordinates":[[[[120.6142,15.1259],[120.6167,15.1271],[120.628,15.1262],[120.6241,15.123],[120.6189,15.1255],[120.6157,15.1241],[120.6142,15.1259]]]]}},{"type":"Feature","properties":{"GID_3":"PHL.60.1.30_1","GID_0":"PHL","COUNTRY":"Philippines","GID_1":"PHL.60_1","NAME_1":"Pampanga","NL_NAME_1":"NA","GID_2":"PHL.60.1_1","NAME_2":"AngelesCity","NL_NAME_2":"NA","NAME_3":"Sapalibutad","VARNAME_3":"NA","NL_NAME_3":"NA","TYPE_3":"Barangay","ENGTYPE_3":"Village","CC_3":"NA","HASC_3":"NA"},"geometry":{"type":"MultiPolygon","coordinates":[[[[120.6416,15.145],[120.6447,15.1529],[120.6474,15.1553],[120.6591,15.1566],[120.6597,15.1449],[120.6416,15.145]]]]}},{"type":"Feature","properties":{"GID_3":"PHL.60.1.31_1","GID_0":"PHL","COUNTRY":"Philippines","GID_1":"PHL.60_1","NAME_1":"Pampanga","NL_NAME_1":"NA","GID_2":"PHL.60.1_1","NAME_2":"AngelesCity","NL_NAME_2":"NA","NAME_3":"Sapangbato","VARNAME_3":"NA","NL_NAME_3":"NA","TYPE_3":"Barangay","ENGTYPE_3":"Village","CC_3":"NA","HASC_3":"NA"},"geometry":{"type":"MultiPolygon","coordinates":[[[[120.558,15.1531],[120.5456,15.1492],[120.5195,15.1514],[120.5167,15.1481],[120.5156,15.1414],[120.5187,15.1404],[120.5211,15.1342],[120.513,15.1301],[120.5058,15.1238],[120.4971,15.1246],[120.4903,15.123],[120.4822,15.1269],[120.4808,15.1354],[120.4987,15.1512],[120.5095,15.1635],[120.5206,15.162],[120.5265,15.1585],[120.5455,15.162],[120.558,15.1531]]]]}},{"type":"Feature","properties":{"GID_3":"PHL.60.1.32_1","GID_0":"PHL","COUNTRY":"Philippines","GID_1":"PHL.60_1","NAME_1":"Pampanga","NL_NAME_1":"NA","GID_2":"PHL.60.1_1","NAME_2":"AngelesCity","NL_NAME_2":"NA","NAME_3":"Tabun","VARNAME_3":"NA","NL_NAME_3":"NA","TYPE_3":"Barangay","ENGTYPE_3":"Village","CC_3":"NA","HASC_3":"NA"},"geometry":{"type":"MultiPolygon","coordinates":[[[[120.6594,15.1434],[120.6451,15.1381],[120.6379,15.1437],[120.6431,15.1453],[120.6597,15.1449],[120.6594,15.1434]]]]}},{"type":"Feature","properties":{"GID_3":"PHL.60.1.33_1","GID_0":"PHL","COUNTRY":"Philippines","GID_1":"PHL.60_1","NAME_1":"Pampanga","NL_NAME_1":"NA","GID_2":"PHL.60.1_1","NAME_2":"AngelesCity","NL_NAME_2":"NA","NAME_3":"VirgenDelosRemedios","VARNAME_3":"NA","NL_NAME_3":"NA","TYPE_3":"Barangay","ENGTYPE_3":"Village","CC_3":"NA","HASC_3":"NA"},"geometry":{"type":"MultiPolygon","coordinates":[[[[120.609,15.1346],[120.6039,15.137],[120.6052,15.1414],[120.6107,15.1409],[120.609,15.1346]]]]}}]}